NORAD_CAT_ID,OBJECT_NAME,OBJECT_TYPE,EPOCH,MEAN_MOTION,ECCENTRICITY,INCLINATION,RA_OF_ASC_NODE,ARG_OF_PERICENTER,MEAN_ANOMALY,BSTAR,MEAN_MOTION_DOT,MEAN_MOTION_DDOT,TLE_LINE0,TLE_LINE1,TLE_LINE2,SEMIMAJOR_AXIS,PERIOD,APOGEE,PERIGEE,DECAYED
55270.0,STARLINK-5301,PAYLOAD,2024-03-14 06:53:02,14.98308105,0.0002874,69.9994,73.614,270.4239,89.6591,-0.00013586,-1.713e-05,0.0,0 STARLINK-5301,1 55270U 23010B   24074.28683049 -.00001713  00000-0 -13586-3 0  9992,2 55270  69.9994  73.6140 0002874 270.4239  89.6591 14.98308105 64126,6950.261,96.108,574.123,570.128,0.0
55270.0,STARLINK-5301,PAYLOAD,2024-03-14 22:54:22,14.98321543,0.0003251,69.9983,71.929,276.6656,83.4133,-7.498e-05,-9.87e-06,0.0,0 STARLINK-5301,1 55270U 23010B   24074.95442715 -.00000987  00000-0 -74980-4 0  9997,2 55270  69.9983  71.9290 0003251 276.6656  83.4133 14.98321543 64228,6950.219,96.108,574.344,569.825,0.0
55270.0,STARLINK-5301,PAYLOAD,2024-03-15 05:18:54,14.98327485,0.0003116,69.9989,71.2569,271.2512,88.829,2.0294e-05,1.49e-06,0.0,0 STARLINK-5301,1 55270U 23010B   24075.22146207  .00000149  00000-0  20294-4 0  9992,2 55270  69.9989  71.2569 0003116 271.2512  88.8290 14.98327485 63951,6950.201,96.107,574.231,569.9,0.0
55270.0,STARLINK-5301,PAYLOAD,2024-03-15 10:07:18,14.98330027,0.0002768,69.9984,70.7511,269.0328,91.0514,0.0001908,2.184e-05,0.0,0 STARLINK-5301,1 55270U 23010B   24075.42173824  .00002184  00000-0  19080-3 0  9990,2 55270  69.9984  70.7511 0002768 269.0328  91.0514 14.98330027 63983,6950.193,96.107,573.982,570.134,0.0
55270.0,STARLINK-5301,PAYLOAD,2024-03-16 10:09:19,14.98337967,0.0002919,70.0006,68.2273,269.4303,90.6521,0.00055604,6.549e-05,0.0,0 STARLINK-5301,1 55270U 23010B   24076.42314042  .00006549  00000-0  55604-3 0  9991,2 55270  70.0006  68.2273 0002919 269.4303  90.6521 14.98337967 64134,6950.168,96.106,574.062,570.004,0.0
55270.0,STARLINK-5301,PAYLOAD,2024-03-17 08:35:10,14.98356234,0.0002749,70.0013,65.871,268.7634,91.321,0.00045319,5.322e-05,0.0,0 STARLINK-5301,1 55270U 23010B   24077.35776501  .00005322  00000-0  45319-3 0  9996,2 55270  70.0013  65.8710 0002749 268.7634  91.3210 14.98356234 64277,6950.112,96.105,573.887,570.066,0.0
55270.0,STARLINK-5301,PAYLOAD,2024-03-18 03:48:47,14.9834024,0.0002436,70.0038,63.8553,221.4328,138.6647,5.6735e-05,5.84e-06,0.0,0 STARLINK-5301,1 55270U 23010B   24078.15888487  .00000584  00000-0  56735-4 0  9992,2 55270  70.0038  63.8553 0002436 221.4328 138.6647 14.98340240 64398,6950.161,96.106,573.719,570.333,0.0
55270.0,STARLINK-5301,PAYLOAD,2024-03-18 08:37:11,14.98335918,0.0002762,70.0017,63.3478,266.3422,93.7421,-9.1656e-05,-1.187e-05,0.0,0 STARLINK-5301,1 55270U 23010B   24078.35916658 -.00001187  00000-0 -91656-4 0  9999,2 55270  70.0017  63.3478 0002762 266.3422  93.7421 14.98335918 64422,6950.175,96.107,573.959,570.12,0.0
55270.0,STARLINK-5301,PAYLOAD,2024-03-19 08:39:12,14.98344003,0.0002719,70.0012,60.8205,267.7892,92.2956,0.00013986,1.577e-05,0.0,0 STARLINK-5301,1 55270U 23010B   24079.36055910  .00001577  00000-0  13986-3 0  9996,2 55270  70.0012  60.8205 0002719 267.7892  92.2956 14.98344003 64573,6950.15,96.106,573.904,570.125,0.0
55270.0,STARLINK-5301,PAYLOAD,2024-03-20 00:40:33,14.98331705,0.0002545,70.0016,59.1378,269.2523,90.8344,0.00020453,2.348e-05,0.0,0 STARLINK-5301,1 55270U 23010B   24080.02816503  .00002348  00000-0  20453-3 0  9998,2 55270  70.0016  59.1378 0002545 269.2523  90.8344 14.98331705 64675,6950.188,96.107,573.821,570.284,0.0
55270.0,STARLINK-5301,PAYLOAD,2024-03-20 08:41:14,14.98326585,0.0002588,70.0005,58.2963,267.0122,93.0741,0.00018489,2.114e-05,0.0,0 STARLINK-5301,1 55270U 23010B   24080.36196793  .00002114  00000-0  18489-3 0  9994,2 55270  70.0005  58.2963 0002588 267.0122  93.0741 14.98326585 65038,6950.203,96.107,573.867,570.27,0.0
55270.0,STARLINK-5301,PAYLOAD,2024-03-20 23:06:24,14.98403211,0.0002286,70.0003,56.7818,251.9182,108.1729,-0.0011701,-0.00014052,0.0,0 STARLINK-5301,1 55270U 23010B   24080.96278714 -.00014052  00000-0 -11701-2 0  9999,2 55270  70.0003  56.7818 0002286 251.9182 108.1729 14.98403211 65127,6949.967,96.102,573.42,570.243,0.0
55270.0,STARLINK-5301,PAYLOAD,2024-03-21 05:30:57,14.98364206,0.0002136,70.0003,56.1082,248.4182,111.675,-0.00038638,-4.704e-05,0.0,0 STARLINK-5301,1 55270U 23010B   24081.22983009 -.00004704  00000-0 -38638-3 0  9991,2 55270  70.0003  56.1082 0002136 248.4182 111.6750 14.98364206 64851,6950.087,96.105,573.437,570.468,0.0
55270.0,STARLINK-5301,PAYLOAD,2024-03-21 08:43:11,14.98396995,0.0002294,70.0006,55.7719,254.1186,105.972,-0.001023,-0.00012298,0.0,0 STARLINK-5301,1 55270U 23010B   24081.36333248 -.00012298  00000-0 -10230-2 0  9994,2 55270  70.0006  55.7719 0002294 254.1186 105.9720 14.98396995 64874,6949.986,96.103,573.445,570.256,0.0
55270.0,STARLINK-5301,PAYLOAD,2024-03-22 05:32:58,14.98337456,0.0002452,70.0023,53.5828,265.2308,94.8571,0.0002309,2.664e-05,0.0,0 STARLINK-5301,1 55270U 23010B   24082.23123716  .00002664  00000-0  23090-3 0  9991,2 55270  70.0023  53.5828 0002452 265.2308  94.8571 14.98337456 65008,6950.17,96.107,573.739,570.331,0.0
55270.0,STARLINK-5301,PAYLOAD,2024-03-22 07:09:06,14.98342728,0.0002688,70.0022,53.4162,260.709,99.3765,0.00029672,3.45e-05,0.0,0 STARLINK-5301,1 55270U 23010B   24082.29799423  .00003450  00000-0  29672-3 0  9997,2 55270  70.0022  53.4162 0002688 260.7090  99.3765 14.98342728 65324,6950.154,96.106,573.887,570.15,0.0
55270.0,STARLINK-5301,PAYLOAD,2024-03-22 21:34:19,14.98328327,0.0002274,70.0039,51.9024,265.0924,94.9975,1.37e-05,7.1e-07,0.0,0 STARLINK-5301,1 55270U 23010B   24082.89884190  .00000071  00000-0  13700-4 0  9991,2 55270  70.0039  51.9024 0002274 265.0924  94.9975 14.98328327 65106,6950.198,96.107,573.644,570.483,0.0
55270.0,STARLINK-5301,PAYLOAD,2024-03-23 07:11:08,14.98328866,0.0002753,70.0007,50.8906,264.0292,96.0553,9.4025e-06,1.9e-07,0.0,0 STARLINK-5301,1 55270U 23010B   24083.29940505  .00000019  00000-0  94025-5 0  9991,2 55270  70.0007  50.8906 0002753 264.0292  96.0553 14.98328866 65470,6950.196,96.107,573.975,570.148,0.0
55270.0,STARLINK-5301,PAYLOAD,2024-03-24 05:37:00,14.98345258,0.0002631,70.0024,48.5336,262.165,97.9211,0.00054889,6.465e-05,0.0,0 STARLINK-5301,1 55270U 23010B   24084.23403495  .00006465  00000-0  54889-3 0  9991,2 55270  70.0024  48.5336 0002631 262.1650  97.9211 14.98345258 65309,6950.146,96.106,573.839,570.182,0.0
55270.0,STARLINK-5301,PAYLOAD,2024-03-24 07:13:08,14.98350105,0.0002734,70.0025,48.3652,269.2333,90.8513,0.0006191,7.305e-05,0.0,0 STARLINK-5301,1 55270U 23010B   24084.30079296  .00007305  00000-0  61910-3 0  9994,2 55270  70.0025  48.3652 0002734 269.2333  90.8513 14.98350105 65628,6950.131,96.106,573.896,570.096,0.0
55270.0,STARLINK-5301,PAYLOAD,2024-03-24 21:38:21,14.98349865,0.0001414,70.0054,46.8511,283.6973,76.4028,0.00081327,9.629e-05,0.0,0 STARLINK-5301,1 55270U 23010B   24084.90163807  .00009629  00000-0  81327-3 0  9997,2 55270  70.0054  46.8511 0001414 283.6973  76.4028 14.98349865 65409,6950.131,96.106,572.979,571.014,0.0
55270.0,STARLINK-5301,PAYLOAD,2024-03-24 23:14:29,14.9834562,0.0002683,70.0028,46.6825,269.5502,90.535,0.00073896,8.739e-05,0.0,0 STARLINK-5301,1 55270U 23010B   24084.96839947  .00008739  00000-0  73896-3 0  9991,2 55270  70.0028  46.6825 0002683 269.5502  90.5350 14.98345620 65721,6950.145,96.106,573.874,570.145,0.0
55270.0,STARLINK-5301,PAYLOAD,2024-03-25 05:39:02,14.98333897,0.0002826,70.0025,46.0089,274.7148,85.3688,0.00026373,3.055e-05,0.0,0 STARLINK-5301,1 55270U 23010B   24085.23544118  .00003055  00000-0  26373-3 0  9999,2 55270  70.0025  46.0089 0002826 274.7148  85.3688 14.98333897 65456,6950.181,96.107,574.01,570.082,0.0
55270.0,STARLINK-5301,PAYLOAD,2024-03-25 21:40:23,14.98320526,0.0002838,70.003,44.3252,270.6696,89.4138,0.00013519,1.52e-05,0.0,0 STARLINK-5301,1 55270U 23010B   24085.90304638  .00001520  00000-0  13519-3 0  9997,2 55270  70.0030  44.3252 0002838 270.6696  89.4138 14.98320526 65552,6950.222,96.108,574.06,570.115,0.0
55270.0,STARLINK-5301,PAYLOAD,2024-03-26 07:17:11,14.98324109,0.0002839,70.0034,43.3156,270.601,89.4823,0.00067278,7.942e-05,0.0,0 STARLINK-5301,1 55270U 23010B   24086.30361107  .00007942  00000-0  67278-3 0  9991,2 55270  70.0034  43.3156 0002839 270.6010  89.4823 14.98324109 65922,6950.211,96.107,574.049,570.103,0.0
55270.0,STARLINK-5301,PAYLOAD,2024-03-26 21:42:24,14.98340313,0.0003011,70.0031,41.801,268.6564,91.425,0.00081219,9.614e-05,0.0,0 STARLINK-5301,1 55270U 23010B   24086.90444715  .00009614  00000-0  81219-3 0  9993,2 55270  70.0031  41.8010 0003011 268.6564  91.4250 14.98340313 65703,6950.161,96.106,574.119,569.933,0.0
55270.0,STARLINK-5301,PAYLOAD,2024-03-27 07:19:12,14.98364921,0.0002832,70.0037,40.792,272.3856,87.6979,0.0015467,0.00018427,0.0,0 STARLINK-5301,1 55270U 23010B   24087.30500037  .00018427  00000-0  15467-2 0  9991,2 55270  70.0037  40.7920 0002832 272.3856  87.6979 14.98364921 65765,6950.085,96.105,573.918,569.982,0.0
55270.0,STARLINK-5301,PAYLOAD,2024-03-27 21:44:24,14.98347652,0.0002897,70.0035,39.2762,264.9791,95.1037,0.00041072,4.813e-05,0.0,0 STARLINK-5301,1 55270U 23010B   24087.90583853  .00004813  00000-0  41072-3 0  9990,2 55270  70.0035  39.2762 0002897 264.9791  95.1037 14.98347652 65857,6950.138,96.106,574.017,569.99,0.0
55270.0,STARLINK-5301,PAYLOAD,2024-03-28 07:21:12,14.98341508,0.0002939,70.003,38.2663,266.0235,94.0588,0.0003439,4.014e-05,0.0,0 STARLINK-5301,1 55270U 23010B   24088.30639790  .00004014  00000-0  34390-3 0  9995,2 55270  70.0030  38.2663 0002939 266.0235  94.0588 14.98341508 65914,6950.157,96.106,574.065,569.98,0.0
55270.0,STARLINK-5301,PAYLOAD,2024-03-28 20:10:17,14.98334618,0.0002262,70.0047,36.9205,250.284,109.8075,0.00065597,7.743e-05,0.0,0 STARLINK-5301,1 55270U 23010B   24088.84048073  .00007743  00000-0  65597-3 0  9997,2 55270  70.0047  36.9205 0002262 250.2840 109.8075 14.98334618 65993,6950.179,96.107,573.616,570.471,0.0
